[{"OBJECT_NAME":"STARLINK-3900","OBJECT_ID":"2022-049L","EPOCH":"2026-03-09T22:31:04.534752","MEAN_MOTION":15.08835619,"ECCENTRICITY":0.00016983,"INCLINATION":53.2182,"RA_OF_ASC_NODE":48.005,"ARG_OF_PERICENTER":80.2222,"MEAN_ANOMALY":279.8962,"EPHEMERIS_TYPE":0,"CLASSIFICATION_TYPE":"U","NORAD_CAT_ID":52461,"ELEMENT_SET_NO":999,"REV_AT_EPOCH":21242,"BSTAR":8.4100662e-5,"MEAN_MOTION_DOT":1.051e-5,"MEAN_MOTION_DDOT":0},{"OBJECT_NAME":"LEMUR-2-ESPERANZA","OBJECT_ID":"2025-061B","EPOCH":"2026-03-09T20:59:51.017856","MEAN_MOTION":15.12770808,"ECCENTRICITY":0.00169494,"INCLINATION":97.5568,"RA_OF_ASC_NODE":45.1407,"ARG_OF_PERICENTER":244.877,"MEAN_ANOMALY":115.0702,"EPHEMERIS_TYPE":0,"CLASSIFICATION_TYPE":"U","NORAD_CAT_ID":63352,"ELEMENT_SET_NO":999,"REV_AT_EPOCH":5257,"BSTAR":0.00034972806,"MEAN_MOTION_DOT":6.09e-5,"MEAN_MOTION_DDOT":0}]
